[{"OBJECT_NAME":"STARLINK-36035","OBJECT_ID":"2025-298H","EPOCH":"2026-03-09T22:04:54.591456","MEAN_MOTION":14.99141738,"ECCENTRICITY":0.0002157,"INCLINATION":70.0024,"RA_OF_ASC_NODE":13.8096,"ARG_OF_PERICENTER":277.7374,"MEAN_ANOMALY":82.3541,"EPHEMERIS_TYPE":0,"CLASSIFICATION_TYPE":"U","NORAD_CAT_ID":67082,"ELEMENT_SET_NO":999,"REV_AT_EPOCH":1325,"BSTAR":0.00054139033,"MEAN_MOTION_DOT":6.509e-5,"MEAN_MOTION_DDOT":0},{"OBJECT_NAME":"FENGYUN 1C DEB","OBJECT_ID":"1999-025DDB","EPOCH":"2026-03-09T10:56:14.251200","MEAN_MOTION":14.6302195,"ECCENTRICITY":0.01614875,"INCLINATION":98.5209,"RA_OF_ASC_NODE":163.6485,"ARG_OF_PERICENTER":230.9829,"MEAN_ANOMALY":127.6902,"EPHEMERIS_TYPE":0,"CLASSIFICATION_TYPE":"U","NORAD_CAT_ID":33618,"ELEMENT_SET_NO":999,"REV_AT_EPOCH":98051,"BSTAR":0.0010717723,"MEAN_MOTION_DOT":6.58e-5,"MEAN_MOTION_DDOT":0}]
